[{"OBJECT_NAME":"TK-2","OBJECT_ID":"2022-031A","EPOCH":"2026-03-09T22:51:17.143200","MEAN_MOTION":15.02943491,"ECCENTRICITY":0.00164117,"INCLINATION":97.8366,"RA_OF_ASC_NODE":263.9365,"ARG_OF_PERICENTER":100.3205,"MEAN_ANOMALY":259.9871,"EPHEMERIS_TYPE":0,"CLASSIFICATION_TYPE":"U","NORAD_CAT_ID":52150,"ELEMENT_SET_NO":999,"REV_AT_EPOCH":21555,"BSTAR":0.00040164474,"MEAN_MOTION_DOT":5.349e-5,"MEAN_MOTION_DDOT":0},{"OBJECT_NAME":"STARLINK-4324","OBJECT_ID":"2022-077AU","EPOCH":"2026-03-09T11:58:46.507296","MEAN_MOTION":15.05648447,"ECCENTRICITY":0.00016298,"INCLINATION":97.6023,"RA_OF_ASC_NODE":250.9843,"ARG_OF_PERICENTER":86.7448,"MEAN_ANOMALY":273.3965,"EPHEMERIS_TYPE":0,"CLASSIFICATION_TYPE":"U","NORAD_CAT_ID":53085,"ELEMENT_SET_NO":999,"REV_AT_EPOCH":20095,"BSTAR":1.6558697e-5,"MEAN_MOTION_DOT":1.78e-6,"MEAN_MOTION_DDOT":0}]
